#aV2019  2 15  0  0  0.00000000     288 DD+AD WGS84 FIT  NGA
## 2040 432000.00000000   300.00000000 58529 0.0000000000000
+   31     1  2  3  5  6  7  8  9 10 11 12 13 14 15 16 17 18
+         19 20 21 22 23 24 25 26 27 28 29 30 31 32  0  0  0
+          0  0  0  0  0  0  0  0  0  0  0  0  0  0  0  0  0
+          0  0  0  0  0  0  0  0  0  0  0  0  0  0  0  0  0
+          0  0  0  0  0  0  0  0  0  0  0  0  0  0  0  0  0
++         2  2  2  2  2  2  2  2  2  2  2  2  2  2  2  2  2
++         2  2  2  2  2  2  2  2  2  2  2  2  2  2  0  0  0
++         0  0  0  0  0  0  0  0  0  0  0  0  0  0  0  0  0
++         0  0  0  0  0  0  0  0  0  0  0  0  0  0  0  0  0
++         0  0  0  0  0  0  0  0  0  0  0  0  0  0  0  0  0
%c cc cc ccc ccc cccc cccc cccc cccc ccccc ccccc ccccc ccccc
%c cc cc ccc ccc cccc cccc cccc cccc ccccc ccccc ccccc ccccc
%f  0.0000000  0.000000000  0.00000000000  0.000000000000000
%f  0.0000000  0.000000000  0.00000000000  0.000000000000000
%i    0    0    0    0      0      0      0      0         0
%i    0    0    0    0      0      0      0      0         0
/*      NGA, ST. LOUIS,MO.                                  
/*   EPHEMERIS COMPUTED FROM 2 DAYS OF DATA                 
/*   EPOCHA v3 SMOOTHER                                     
/*   G1762 IERS2010 SATAF SATAPC                            
*  2019  2 15 15  5  0.00000000
P  1 -16894.122799  -4126.991619  19996.196786   -163.766701                    
V  1 -10032.752153 -23608.898328 -12931.593127     -0.069959                    
P  2  14475.560768  22111.057173  -2890.461080   -140.557417                    
V  2   -460.837958   5256.467003  31191.142066     -0.098721                    
P  3 -19089.350659   6472.064345  17219.975997    183.053779                    
V  3  11099.467402 -19031.200823  19487.901313      0.017621                    
P  5   9399.810861  13214.737691 -21121.224014      1.086807                    
V  5 -15283.612568  21811.259204   7083.779380      0.000498                    
P  6   6265.187462  24753.991693   7305.008913    275.156262                    
V  6  -6013.329255  -7341.197430  30236.960977     -0.082261                    
P  7 -11124.159403  11334.533817 -20972.599532     32.036481                    
V  7 -12085.678786 -24497.914010  -7206.197131     -0.072382                    
P  8 -25128.214461  -6140.146208  -6416.472335   -132.856687                    
V  8   8294.056550  -1699.590221 -30438.638266     -0.013917                    
P  9 -20306.304496   9020.011009 -14607.008441    458.182967                    
V  9 -18284.785441  -3522.562993  23307.034361     -0.052546                    
P 10   9693.637719 -23421.148820   7646.210224    116.211519                    
V 10   7747.130295  -6424.343400 -29893.336400     -0.076021                    
P 11 -22241.279543  -5546.451692  12688.634437   -659.798322                    
V 11 -10799.932602 -13922.000892 -24247.823195      0.060046                    
P 12  18513.441691  -3592.668311  18422.029918    267.729000                    
V 12 -13836.729144  19435.587597  17678.673372     -0.031983                    
P 13  19836.557835  12786.752947 -12337.147508    -74.845655                    
V 13 -15557.470835  -1090.459837 -26360.079551      0.012596                    
P 14  -5298.233994 -15771.970134  21046.502337    -91.347788                    
V 14  25761.308543   3487.336837   9055.453257      0.007105                    
P 15  26232.375165   3177.835093  -4550.616566   -327.726006                    
V 15  -5399.809788   3446.242285 -30055.167993      0.017082                    
P 16  -8681.711683 -12381.662366 -21962.522621    -19.394160                    
V 16  17888.807871 -20834.794876   5135.004348     -0.025083                    
P 17  -5273.415839  14201.554830  22219.025815     10.184710                    
V 17 -26886.156348  -3923.755221  -4038.002642      0.055059                    
P 18 -18080.961409 -13783.440709  13366.719033     26.246030                    
V 18  -6152.118072 -16813.757363 -24635.403626      0.037686                    
P 19   4775.806692  15138.854810  20982.317640   -352.185828                    
V 19 -26968.552037  -4229.167925   9161.771869      0.041208                    
P 20  14206.061114 -22184.492411  -2848.867850    522.231968                    
V 20   1752.920008   4915.938822 -30874.226236      0.003869                    
P 21   7696.384074 -15295.116699 -19532.403135   -249.654509                    
V 21  13854.938087  22751.639685 -11767.445359      0.071866                    
P 22 -17060.868993  -1461.079382  20527.213191   -645.800580                    
V 22  12234.620414 -22610.271605   8712.286630     -0.080811                    
P 23 -26244.267567   1735.745245  -4721.147633   -197.148696                    
V 23  -6123.850832  -3391.607778  30339.421517      0.012692                    
P 24  18550.315018   7897.517633  17300.717640    -62.203293                    
V 24   8751.221852  20499.909153 -18254.139583     -0.005037                    
P 25  19093.340007 -14843.505954  10479.585681   -720.806380                    
V 25  -5848.025473  12593.694576  28214.309266     -0.053862                    
P 26  -1682.326733 -19920.075674 -17410.624832    125.177976                    
V 26  13810.736228 -17457.381374  18822.877459      0.103003                    
P 27 -18493.031062 -11788.332349 -15277.467904    -68.195252                    
V 27  19140.429352     98.471402 -23095.749169     -0.073515                    
P 28 -12306.146816  22554.412618   7521.606302    764.649273                    
V 28  -6938.578146   5518.478794 -30303.828091      0.009120                    
P 29  23507.842428  -4319.316135 -11598.652131    269.920697                    
V 29  14251.031934   3852.112481  27502.885666     -0.086186                    
P 30  -3354.740376  21224.097097 -15483.015862    -53.152520                    
V 30  -9931.418677 -17321.629492 -21746.802511     -0.064043                    
P 31  -6646.186650 -24865.797892   5513.629608     58.463793                    
V 31   5685.862101   5249.812758  30990.240754     -0.026454                    
P 32   1773.238035 -15229.565264  21728.939986   -225.478056                    
V 32  27419.703899   2177.497168   -818.980263      0.187177                    
EOF
